     2.100          NAVIGATION                              RINEX VERSION / TYPE
fic2rin                                 10/16/2009 01:16:45 PGM / RUN BY / DATE
                                                            END OF HEADER
32 09 10 15 22  0  0.0  .177185051143D-03 -.727595761418D-11  .000000000000D+00
     .170000000000D+02 -.179375000000D+02  .495020619596D-08 -.306843834077D+01
    -.910833477974D-06  .132602878148D-01  .211596488953D-05  .515368856430D+04
     .424800000000D+06  .111758708954D-06 -.177178811340D+01  .229105353355D-06
     .961767853766D+00  .336156250000D+03 -.110133215788D+01 -.835927676886D-08
    -.175364447490D-09  .100000000000D+01  .155300000000D+04  .000000000000D+00
     .240000000000D+01  .000000000000D+00 -.325962901115D-08  .170000000000D+02
     .417606000000D+06  .400000000000D+01
 8 09 10 15 21 59 44.0 -.225370749831D-03 -.170530256582D-11  .000000000000D+00
     .560000000000D+02  .712812500000D+02  .373229832235D-08  .181733319316D+01
     .391341745853D-05  .110132199479D-01  .987574458122D-05  .515361808968D+04
     .424784000000D+06 -.596046447754D-07  .301414790016D+00  .169500708580D-06
     .990645534809D+00  .205093750000D+03  .304038898735D+01 -.769567769872D-08
     .356086260993D-09  .100000000000D+01  .155300000000D+04  .000000000000D+00
     .240000000000D+01  .630000000000D+02 -.372529029846D-08  .560000000000D+02
     .417666000000D+06  .400000000000D+01
16 09 10 15 21 59 44.0  .210432335734D-05 -.409272615798D-11  .000000000000D+00
     .000000000000D+00 -.136562500000D+02  .481734351884D-08  .110763442359D+00
    -.691041350365D-06  .530056876596D-02  .339373946190D-05  .515362999725D+04
     .424784000000D+06  .800937414169D-07  .130805085476D+01 -.372529029846D-07
     .969320462397D+00  .316000000000D+03 -.268076772691D+00 -.852249785339D-08
     .146434671020D-10  .100000000000D+01  .155300000000D+04  .000000000000D+00
     .240000000000D+01  .000000000000D+00 -.977888703346D-08  .000000000000D+00
     .419256000000D+06  .400000000000D+01
20 09 10 15 21 59 44.0  .698999501765D-04 -.909494701773D-12  .000000000000D+00
     .190000000000D+02 -.125000000000D+00  .558058959681D-08  .490431143854D+00
    -.260770320892D-07  .388443423435D-02  .217370688915D-05  .515375352097D+04
     .424784000000D+06  .298023223877D-07 -.188440158244D+01  .540167093277D-07
     .939831653178D+00  .325000000000D+03  .130614388691D+01 -.896858786340D-08
    -.101432796512D-09  .100000000000D+01  .155300000000D+04  .000000000000D+00
     .240000000000D+01  .000000000000D+00 -.745058059692D-08  .190000000000D+02
     .422976000000D+06  .400000000000D+01
 5 09 10 15 21 59 44.0 -.646826811135D-04  .864019966684D-11  .000000000000D+00
     .600000000000D+01 -.130312500000D+02  .505699635848D-08 -.728935963840D+00
    -.698491930962D-06  .153600750491D-02  .290758907795D-05  .515356844521D+04
     .424784000000D+06 -.167638063431D-07 -.186079774156D+01  .000000000000D+00
     .960989429204D+00  .324593750000D+03  .219741703341D+00 -.858571477234D-08
    -.183221917643D-09  .100000000000D+01  .155300000000D+04  .000000000000D+00
     .240000000000D+01  .000000000000D+00 -.931322574615D-08  .600000000000D+01
     .423456000000D+06  .400000000000D+01
 5 09 10 15 23 59 44.0 -.646202825010D-04  .864019966684D-11  .000000000000D+00
     .700000000000D+01 -.996875000000D+01  .509056918550D-08  .321374026518D+00
    -.521540641785D-06  .153738190420D-02  .219605863094D-05  .515357103920D+04
     .431984000000D+06 -.447034835815D-07 -.186085967566D+01 -.372529029846D-07
     .960987995544D+00  .334093750000D+03  .219680395370D+00 -.861714465295D-08
    -.174650132022D-09  .100000000000D+01  .155300000000D+04  .000000000000D+00
     .240000000000D+01  .000000000000D+00 -.931322574615D-08  .700000000000D+01
     .424806000000D+06  .400000000000D+01
16 09 10 15 23 59 44.0  .207498669624D-05 -.409272615798D-11  .000000000000D+00
     .150000000000D+02 -.141250000000D+02  .475091218028D-08  .116098713811D+01
    -.679865479469D-06  .530042161699D-02  .345893204212D-05  .515362969017D+04
     .431984000000D+06  .856816768646D-07  .130799032652D+01  .128522515297D-06
     .969320951011D+00  .314812500000D+03 -.268091030290D+00 -.838677791439D-08
    -.457161899771D-10  .100000000000D+01  .155300000000D+04  .000000000000D+00
     .240000000000D+01  .000000000000D+00 -.977888703346D-08  .150000000000D+02
     .424806000000D+06  .400000000000D+01
20 09 10 15 23 59 44.0  .698938965797D-04 -.909494701773D-12  .000000000000D+00
     .200000000000D+02  .962500000000D+01  .558666127830D-08  .154085841636D+01
     .374391674995D-06  .388359127101D-02  .205263495445D-05  .515375088501D+04
     .431984000000D+06 -.800937414169D-07 -.188446638971D+01 -.372529029846D-07
     .939831596124D+00  .327625000000D+03  .130585772551D+01 -.886715506689D-08
    -.139291516336D-10  .100000000000D+01  .155300000000D+04  .000000000000D+00
     .240000000000D+01  .000000000000D+00 -.745058059692D-08  .200000000000D+02
     .424806000000D+06  .400000000000D+01
 1 09 10 16  0  0  0.0 -.600302591920D-04 -.147792889038D-11  .000000000000D+00
     .200000000000D+01 -.125937500000D+02  .621704467915D-08  .144828191304D+01
    -.726431608200D-06  .381512602326D-02  .353157520294D-05  .515368888092D+04
     .432000000000D+06 -.856816768646D-07  .127781729589D+01  .558793544769D-08
     .961868267000D+00  .309937500000D+03  .980135128185D+00 -.854321300197D-08
    -.392873507616D-10  .100000000000D+01  .155300000000D+04  .000000000000D+00
     .240000000000D+01  .630000000000D+02 -.190921127796D-07  .200000000000D+01
     .424806000000D+06  .400000000000D+01
 2 09 10 16  0  0  0.0  .181394629180D-03  .363797880709D-11  .000000000000D+00
     .820000000000D+02  .958750000000D+02  .504306720685D-08 -.105789187344D+01
     .495463609695D-05  .911268009804D-02  .958144664764D-05  .515372571564D+04
     .432000000000D+06 -.260770320892D-07 -.291896575688D+01 -.121071934700D-06
     .941179348903D+00  .185937500000D+03  .290345641143D+01 -.836427697714D-08
     .516807241382D-09  .100000000000D+01  .155300000000D+04  .000000000000D+00
     .240000000000D+01  .000000000000D+00 -.172294676304D-07  .820000000000D+02
     .424806000000D+06  .400000000000D+01
 3 09 10 16  0  0  0.0  .461162999272D-03  .522959453519D-11  .000000000000D+00
     .600000000000D+01 -.749375000000D+02  .528772025477D-08 -.131987098999D+01
    -.373832881451D-05  .125819712412D-01  .983290374279D-05  .515366316605D+04
     .432000000000D+06  .320374965668D-06  .221517916738D+01  .763684511185D-07
     .926546997967D+00  .165750000000D+03  .953508071998D+00 -.844892336014D-08
    -.428232123301D-09  .100000000000D+01  .155300000000D+04  .000000000000D+00
     .240000000000D+01  .000000000000D+00 -.465661287308D-08  .600000000000D+01
     .424806000000D+06  .400000000000D+01
 4 09 10 16  0  0  0.0 -.312802381814D-03 -.177351466846D-10  .000000000000D+00
     .650000000000D+02  .904375000000D+02  .503735268310D-08  .177990243576D+01
     .483542680740D-05  .893813301809D-02  .101607292891D-04  .515356420517D+04
     .432000000000D+06 -.240281224251D-06 -.290078499135D+01  .150874257088D-06
     .940356625719D+00  .175187500000D+03  .538013597443D+00 -.839570685775D-08
     .395016454021D-09  .100000000000D+01  .155300000000D+04  .000000000000D+00
     .240000000000D+01  .000000000000D+00 -.605359673500D-08  .650000000000D+02
     .424806000000D+06  .400000000000D+01
 6 09 10 16  0  0  0.0  .253228936344D-03  .409272615798D-11  .000000000000D+00
     .180000000000D+02 -.765000000000D+02  .509628370924D-08  .999080401538D+00
    -.401027500629D-05  .578969658818D-02  .110305845737D-04  .515370243645D+04
     .432000000000D+06  .000000000000D+00  .228393874262D+01 -.171363353729D-06
     .934036047196D+00  .153250000000D+03 -.123043398056D+01 -.843892294359D-08
    -.425732019162D-09  .100000000000D+01  .155300000000D+04  .000000000000D+00
     .240000000000D+01  .000000000000D+00 -.512227416039D-08  .180000000000D+02
     .424806000000D+06  .400000000000D+01
 7 09 10 16  0  0  0.0  .953348353505D-05 -.795807864051D-12  .000000000000D+00
     .500000000000D+02  .601875000000D+02  .415624455284D-08 -.277128350822D+01
     .315532088280D-05  .321500271093D-02  .108052045107D-04  .515364941788D+04
     .432000000000D+06 -.391155481339D-07  .238115383879D+00 -.260770320892D-07
     .969417677692D+00  .175937500000D+03  .298983306499D+01 -.784961268216D-08
     .473591155544D-09  .100000000000D+01  .155300000000D+04  .000000000000D+00
     .240000000000D+01  .000000000000D+00 -.107102096081D-07  .500000000000D+02
     .424806000000D+06  .400000000000D+01
 8 09 10 16  0  0  0.0 -.225382391363D-03 -.170530256582D-11  .000000000000D+00
     .620000000000D+02  .615937500000D+02  .368443918597D-08  .286974871616D+01
     .316090881824D-05  .110124120256D-01  .103376805782D-04  .515362100029D+04
     .432000000000D+06 -.212341547012D-06  .301358912397D+00  .391155481339D-07
     .990648880502D+00  .196906250000D+03  .304051534105D+01 -.757388691136D-08
     .465376527657D-09  .100000000000D+01  .155300000000D+04  .000000000000D+00
     .240000000000D+01  .630000000000D+02 -.372529029846D-08  .620000000000D+02
     .424806000000D+06  .400000000000D+01
 9 09 10 16  0  0  0.0  .832090154290D-04  .216004991671D-11  .000000000000D+00
     .790000000000D+02  .672500000000D+02  .382408786004D-08  .264377965144D+01
     .349618494511D-05  .206170082092D-01  .104326754808D-04  .515362736320D+04
     .432000000000D+06  .214204192162D-06  .205139702103D+00  .372529029846D-08
     .978297691374D+00  .180343750000D+03  .151742652979D+01 -.742173771659D-08
     .402159608705D-09  .100000000000D+01  .155300000000D+04  .000000000000D+00
     .340000000000D+01  .000000000000D+00 -.558793544769D-08  .790000000000D+02
     .424806000000D+06  .400000000000D+01
